ONEWEB-0617             
1 55158U 23004U   25252.98156653  .00000097  00000+0  23867-3 0  9996
2 55158  87.8772  76.8954 0001916  96.9778 263.1568 13.11415461129131
ONEWEB-0618             
1 55159U 23004V   25253.58335648  .00025286  00000+0  27829-2 0  9995
2 55159  86.9052 290.4972 0012033 244.2235 140.3773 14.87412189  5714
ONEWEB-0619             
1 55160U 23004W   25253.42624353  .00000015  00000+0  52348-5 0  9994
2 55160  87.9043  61.4854 0002053  80.2696 279.8667 13.17648012130753
ONEWEB-0620             
1 55161U 23004X   25253.20537070  .00000305  00000+0  82359-3 0  9995
2 55161  87.8768  76.8720 0001636  96.6697 263.4617 13.11415819129132
ONEWEB-0621             
1 55162U 23004Y   25253.46137971 -.00000503  00000+0 -14557-2 0  9996
2 55162  87.8785  76.7801 0001908  85.6439 274.4907 13.11416880129149
ONEWEB-0622             
1 55163U 23004Z   25253.46645499 -.00000477  00000+0 -13805-2 0  9991
2 55163  87.8772  76.7993 0002368 101.3453 258.7941 13.11416099129135
ONEWEB-0623             
1 55164U 23004AA  25253.42118409 -.00000014  00000+0 -68310-4 0  9994
2 55164  87.9039  61.5421 0002490  93.0002 267.1415 13.17649298130748
ONEWEB-0624             
1 55165U 23004AB  25253.43040310  .00000192  00000+0  49400-3 0  9994
2 55165  87.8888  46.2288 0001869  90.4572 269.6771 13.12913678131365
ONEWEB-0625             
1 55166U 23004AC  25253.41105151  .00000068  00000+0  14073-3 0  9998
2 55166  87.9035  61.5408 0001645  87.1328 272.9991 13.17648558130737
ONEWEB-0626             
1 55167U 23004AD  25253.40092037 -.00000009  00000+0 -56450-4 0  9999
2 55167  87.9036  61.5416 0001429 107.7961 252.3326 13.17647444130737
ONEWEB-0627             
1 55168U 23004AE  25252.93351201  .00000061  00000+0  12517-3 0  9999
2 55168  87.9035  61.6363 0002252  96.1644 263.9744 13.17649798130672
ONEWEB-0628             
1 55169U 23004AF  25253.38493660 -.00000313  00000+0 -90569-3 0  9991
2 55169  87.8898  46.2397 0002399  92.7045 267.4358 13.12443272131332
ONEWEB-0629             
1 55170U 23004AG  25252.98497905  .00000057  00000+0  11308-3 0  9991
2 55170  87.9043  61.6200 0001916  82.2043 277.9306 13.17648582130689
ONEWEB-0631             
1 55171U 23004AH  25253.34446136  .00000297  00000+0  71962-3 0  9991
2 55171  87.9237  31.0034 0001920 106.8374 253.2969 13.18689989132799
ONEWEB-0709             
1 55172U 23004AJ  25252.96630021  .00000591  00000+0  16305-2 0  9993
2 55172  87.8775  76.9212 0001178 121.4021 238.7222 13.11415017129146
ONEWEB-0710             
1 55173U 23004AK  25253.45492735  .00000013  00000+0  62788-6 0  9996
2 55173  87.9036  61.5223 0001899  93.4777 266.6572 13.17650621130740
