[{"OBJECT_NAME":"ONEWEB-0617","OBJECT_ID":"2023-004U","EPOCH":"2025-09-09T23:33:27.348192","MEAN_MOTION":13.11415461,"ECCENTRICITY":0.00019166,"INCLINATION":87.8772,"RA_OF_ASC_NODE":76.8954,"ARG_OF_PERICENTER":96.9778,"MEAN_ANOMALY":263.1568,"EPHEMERIS_TYPE":0,"CLASSIFICATION_TYPE":"U","NORAD_CAT_ID":55158,"ELEMENT_SET_NO":999,"REV_AT_EPOCH":12913,"BSTAR":0.00023867278,"MEAN_MOTION_DOT":9.7e-7,"MEAN_MOTION_DDOT":0},{"OBJECT_NAME":"ONEWEB-0618","OBJECT_ID":"2023-004V","EPOCH":"2025-09-10T14:00:01.999872","MEAN_MOTION":14.87412189,"ECCENTRICITY":0.00120332,"INCLINATION":86.9052,"RA_OF_ASC_NODE":290.4972,"ARG_OF_PERICENTER":244.2235,"MEAN_ANOMALY":140.3773,"EPHEMERIS_TYPE":0,"CLASSIFICATION_TYPE":"U","NORAD_CAT_ID":55159,"ELEMENT_SET_NO":999,"REV_AT_EPOCH":571,"BSTAR":0.0027829381,"MEAN_MOTION_DOT":0.00025286,"MEAN_MOTION_DDOT":0},{"OBJECT_NAME":"ONEWEB-0619","OBJECT_ID":"2023-004W","EPOCH":"2025-09-10T10:13:47.440992","MEAN_MOTION":13.17648012,"ECCENTRICITY":0.00020537,"INCLINATION":87.9043,"RA_OF_ASC_NODE":61.4854,"ARG_OF_PERICENTER":80.2696,"MEAN_ANOMALY":279.8667,"EPHEMERIS_TYPE":0,"CLASSIFICATION_TYPE":"U","NORAD_CAT_ID":55160,"ELEMENT_SET_NO":999,"REV_AT_EPOCH":13075,"BSTAR":5.234824e-6,"MEAN_MOTION_DOT":1.5e-7,"MEAN_MOTION_DDOT":0},{"OBJECT_NAME":"ONEWEB-0620","OBJECT_ID":"2023-004X","EPOCH":"2025-09-10T04:55:44.028480","MEAN_MOTION":13.11415819,"ECCENTRICITY":0.00016366,"INCLINATION":87.8768,"RA_OF_ASC_NODE":76.872,"ARG_OF_PERICENTER":96.6697,"MEAN_ANOMALY":263.4617,"EPHEMERIS_TYPE":0,"CLASSIFICATION_TYPE":"U","NORAD_CAT_ID":55161,"ELEMENT_SET_NO":999,"REV_AT_EPOCH":12913,"BSTAR":0.00082359413,"MEAN_MOTION_DOT":3.05e-6,"MEAN_MOTION_DDOT":0},{"OBJECT_NAME":"ONEWEB-0621","OBJECT_ID":"2023-004Y","EPOCH":"2025-09-10T11:04:23.206944","MEAN_MOTION":13.1141688,"ECCENTRICITY":0.00019082,"INCLINATION":87.8785,"RA_OF_ASC_NODE":76.7801,"ARG_OF_PERICENTER":85.6439,"MEAN_ANOMALY":274.4907,"EPHEMERIS_TYPE":0,"CLASSIFICATION_TYPE":"U","NORAD_CAT_ID":55162,"ELEMENT_SET_NO":999,"REV_AT_EPOCH":12914,"BSTAR":-0.0014556574,"MEAN_MOTION_DOT":-5.03e-6,"MEAN_MOTION_DDOT":0},{"OBJECT_NAME":"ONEWEB-0622","OBJECT_ID":"2023-004Z","EPOCH":"2025-09-10T11:11:41.711136","MEAN_MOTION":13.11416099,"ECCENTRICITY":0.00023683,"INCLINATION":87.8772,"RA_OF_ASC_NODE":76.7993,"ARG_OF_PERICENTER":101.3453,"MEAN_ANOMALY":258.7941,"EPHEMERIS_TYPE":0,"CLASSIFICATION_TYPE":"U","NORAD_CAT_ID":55163,"ELEMENT_SET_NO":999,"REV_AT_EPOCH":12913,"BSTAR":-0.0013804917,"MEAN_MOTION_DOT":-4.77e-6,"MEAN_MOTION_DDOT":0},{"OBJECT_NAME":"ONEWEB-0623","OBJECT_ID":"2023-004AA","EPOCH":"2025-09-10T10:06:30.305376","MEAN_MOTION":13.17649298,"ECCENTRICITY":0.00024903,"INCLINATION":87.9039,"RA_OF_ASC_NODE":61.5421,"ARG_OF_PERICENTER":93.0002,"MEAN_ANOMALY":267.1415,"EPHEMERIS_TYPE":0,"CLASSIFICATION_TYPE":"U","NORAD_CAT_ID":55164,"ELEMENT_SET_NO":999,"REV_AT_EPOCH":13074,"BSTAR":-6.8309858e-5,"MEAN_MOTION_DOT":-1.4e-7,"MEAN_MOTION_DDOT":0},{"OBJECT_NAME":"ONEWEB-0624","OBJECT_ID":"2023-004AB","EPOCH":"2025-09-10T10:19:46.827840","MEAN_MOTION":13.12913678,"ECCENTRICITY":0.00018697,"INCLINATION":87.8888,"RA_OF_ASC_NODE":46.2288,"ARG_OF_PERICENTER":90.4572,"MEAN_ANOMALY":269.6771,"EPHEMERIS_TYPE":0,"CLASSIFICATION_TYPE":"U","NORAD_CAT_ID":55165,"ELEMENT_SET_NO":999,"REV_AT_EPOCH":13136,"BSTAR":0.00049399613,"MEAN_MOTION_DOT":1.92e-6,"MEAN_MOTION_DDOT":0},{"OBJECT_NAME":"ONEWEB-0625","OBJECT_ID":"2023-004AC","EPOCH":"2025-09-10T09:51:54.850464","MEAN_MOTION":13.17648558,"ECCENTRICITY":0.00016455,"INCLINATION":87.9035,"RA_OF_ASC_NODE":61.5408,"ARG_OF_PERICENTER":87.1328,"MEAN_ANOMALY":272.9991,"EPHEMERIS_TYPE":0,"CLASSIFICATION_TYPE":"U","NORAD_CAT_ID":55166,"ELEMENT_SET_NO":999,"REV_AT_EPOCH":13073,"BSTAR":0.00014072705,"MEAN_MOTION_DOT":6.8e-7,"MEAN_MOTION_DDOT":0},{"OBJECT_NAME":"ONEWEB-0626","OBJECT_ID":"2023-004AD","EPOCH":"2025-09-10T09:37:19.519968","MEAN_MOTION":13.17647444,"ECCENTRICITY":0.00014292,"INCLINATION":87.9036,"RA_OF_ASC_NODE":61.5416,"ARG_OF_PERICENTER":107.7961,"MEAN_ANOMALY":252.3326,"EPHEMERIS_TYPE":0,"CLASSIFICATION_TYPE":"U","NORAD_CAT_ID":55167,"ELEMENT_SET_NO":999,"REV_AT_EPOCH":13073,"BSTAR":-5.6449538e-5,"MEAN_MOTION_DOT":-9.0e-8,"MEAN_MOTION_DDOT":0},{"OBJECT_NAME":"ONEWEB-0627","OBJECT_ID":"2023-004AE","EPOCH":"2025-09-09T22:24:15.437664","MEAN_MOTION":13.17649798,"ECCENTRICITY":0.00022521,"INCLINATION":87.9035,"RA_OF_ASC_NODE":61.6363,"ARG_OF_PERICENTER":96.1644,"MEAN_ANOMALY":263.9744,"EPHEMERIS_TYPE":0,"CLASSIFICATION_TYPE":"U","NORAD_CAT_ID":55168,"ELEMENT_SET_NO":999,"REV_AT_EPOCH":13067,"BSTAR":0.00012517333,"MEAN_MOTION_DOT":6.1e-7,"MEAN_MOTION_DDOT":0},{"OBJECT_NAME":"ONEWEB-0628","OBJECT_ID":"2023-004AF","EPOCH":"2025-09-10T09:14:18.522240","MEAN_MOTION":13.12443272,"ECCENTRICITY":0.00023999,"INCLINATION":87.8898,"RA_OF_ASC_NODE":46.2397,"ARG_OF_PERICENTER":92.7045,"MEAN_ANOMALY":267.4358,"EPHEMERIS_TYPE":0,"CLASSIFICATION_TYPE":"U","NORAD_CAT_ID":55169,"ELEMENT_SET_NO":999,"REV_AT_EPOCH":13133,"BSTAR":-0.00090569247,"MEAN_MOTION_DOT":-3.13e-6,"MEAN_MOTION_DDOT":0},{"OBJECT_NAME":"ONEWEB-0629","OBJECT_ID":"2023-004AG","EPOCH":"2025-09-09T23:38:22.189920","MEAN_MOTION":13.17648582,"ECCENTRICITY":0.00019168,"INCLINATION":87.9043,"RA_OF_ASC_NODE":61.62,"ARG_OF_PERICENTER":82.2043,"MEAN_ANOMALY":277.9306,"EPHEMERIS_TYPE":0,"CLASSIFICATION_TYPE":"U","NORAD_CAT_ID":55170,"ELEMENT_SET_NO":999,"REV_AT_EPOCH":13068,"BSTAR":0.00011308297,"MEAN_MOTION_DOT":5.7e-7,"MEAN_MOTION_DDOT":0},{"OBJECT_NAME":"ONEWEB-0631","OBJECT_ID":"2023-004AH","EPOCH":"2025-09-10T08:16:01.461504","MEAN_MOTION":13.18689989,"ECCENTRICITY":0.00019209,"INCLINATION":87.9237,"RA_OF_ASC_NODE":31.0034,"ARG_OF_PERICENTER":106.8374,"MEAN_ANOMALY":253.2969,"EPHEMERIS_TYPE":0,"CLASSIFICATION_TYPE":"U","NORAD_CAT_ID":55171,"ELEMENT_SET_NO":999,"REV_AT_EPOCH":13279,"BSTAR":0.0007196226,"MEAN_MOTION_DOT":2.97e-6,"MEAN_MOTION_DDOT":0},{"OBJECT_NAME":"ONEWEB-0709","OBJECT_ID":"2023-004AJ","EPOCH":"2025-09-09T23:11:28.338144","MEAN_MOTION":13.11415017,"ECCENTRICITY":0.0001178,"INCLINATION":87.8775,"RA_OF_ASC_NODE":76.9212,"ARG_OF_PERICENTER":121.4021,"MEAN_ANOMALY":238.7222,"EPHEMERIS_TYPE":0,"CLASSIFICATION_TYPE":"U","NORAD_CAT_ID":55172,"ELEMENT_SET_NO":999,"REV_AT_EPOCH":12914,"BSTAR":0.0016305284,"MEAN_MOTION_DOT":5.91e-6,"MEAN_MOTION_DDOT":0},{"OBJECT_NAME":"ONEWEB-0710","OBJECT_ID":"2023-004AK","EPOCH":"2025-09-10T10:55:05.723040","MEAN_MOTION":13.17650621,"ECCENTRICITY":0.00018999,"INCLINATION":87.9036,"RA_OF_ASC_NODE":61.5223,"ARG_OF_PERICENTER":93.4777,"MEAN_ANOMALY":266.6572,"EPHEMERIS_TYPE":0,"CLASSIFICATION_TYPE":"U","NORAD_CAT_ID":55173,"ELEMENT_SET_NO":999,"REV_AT_EPOCH":13074,"BSTAR":6.27881e-7,"MEAN_MOTION_DOT":1.3e-7,"MEAN_MOTION_DDOT":0}]
